{
    "links": {
        "self": "http://www.neowsapp.com/rest/v1/neo/3747987?api_key=iIulBulltgU6a56xZRHN4H3l9WmuAYTsLGpBGhQ2"
    },
    "id": "3747987",
    "neo_reference_id": "3747987",
    "name": "(2016 FD1)",
    "designation": "2016 FD1",
    "nasa_jpl_url": "http://ssd.jpl.nasa.gov/sbdb.cgi?sstr=3747987",
    "absolute_magnitude_h": 23.1,
    "estimated_diameter": {
        "kilometers": {
            "estimated_diameter_min": 0.063760979,
            "estimated_diameter_max": 0.1425738833
        },
        "meters": {
            "estimated_diameter_min": 63.7609789875,
            "estimated_diameter_max": 142.5738833281
        },
        "miles": {
            "estimated_diameter_min": 0.0396192233,
            "estimated_diameter_max": 0.0885912765
        },
        "feet": {
            "estimated_diameter_min": 209.1895703015,
            "estimated_diameter_max": 467.7620993781
        }
    },
    "is_potentially_hazardous_asteroid": false,
    "close_approach_data": [
        {
            "close_approach_date": "2016-02-25",
            "close_approach_date_full": "2016-Feb-25 20:34",
            "epoch_date_close_approach": 1456432440000,
            "relative_velocity": {
                "kilometers_per_second": "12.3663286803",
                "kilometers_per_hour": "44518.783249192",
                "miles_per_hour": "27662.2406250326"
            },
            "miss_distance": {
                "astronomical": "0.0967401039",
                "lunar": "37.6319004171",
                "kilometers": "14472113.487018693",
                "miles": "8992554.3305482434"
            },
            "orbiting_body": "Earth"
        },
        {
            "close_approach_date": "2017-11-01",
            "close_approach_date_full": "2017-Nov-01 15:10",
            "epoch_date_close_approach": 1509549000000,
            "relative_velocity": {
                "kilometers_per_second": "11.1427163524",
                "kilometers_per_hour": "40113.7788686191",
                "miles_per_hour": "24925.1422086706"
            },
            "miss_distance": {
                "astronomical": "0.2050063611",
                "lunar": "79.7474744679",
                "kilometers": "30668514.957010857",
                "miles": "19056531.5311775466"
            },
            "orbiting_body": "Earth"
        },
        {
            "close_approach_date": "2019-09-05",
            "close_approach_date_full": "2019-Sep-05 00:55",
            "epoch_date_close_approach": 1567644900000,
            "relative_velocity": {
                "kilometers_per_second": "26.8497370503",
                "kilometers_per_hour": "96659.0533809997",
                "miles_per_hour": "60060.1768077662"
            },
            "miss_distance": {
                "astronomical": "0.4209059692",
                "lunar": "163.7324220188",
                "kilometers": "62966636.462605604",
                "miles": "39125653.6171971752"
            },
            "orbiting_body": "Earth"
        },
        {
            "close_approach_date": "2055-09-03",
            "close_approach_date_full": "2055-Sep-03 22:40",
            "epoch_date_close_approach": 2703624000000,
            "relative_velocity": {
                "kilometers_per_second": "27.6941421377",
                "kilometers_per_hour": "99698.9116955414",
                "miles_per_hour": "61949.0265477102"
            },
            "miss_distance": {
                "astronomical": "0.4492245107",
                "lunar": "174.7483346623",
                "kilometers": "67203029.952512209",
                "miles": "41758026.4670741242"
            },
            "orbiting_body": "Earth"
        }
    ],
    "orbital_data": {
        "orbit_id": "10",
        "orbit_determination_date": "2017-07-02 06:21:26",
        "first_observation_date": "2016-03-16",
        "last_observation_date": "2016-04-09",
        "data_arc_in_days": 24,
        "observations_used": 51,
        "orbit_uncertainty": "7",
        "minimum_orbit_intersection": ".0454518",
        "jupiter_tisserand_invariant": "4.315",
        "epoch_osculation": "2459000.5",
        "eccentricity": ".5308163528517597",
        "semi_major_axis": "1.530896929128258",
        "inclination": "4.61678183389428",
        "ascending_node_longitude": "219.0745355881768",
        "orbital_period": "691.858617507178",
        "perihelion_distance": ".7182718046164374",
        "perihelion_argument": "224.5174104977067",
        "aphelion_distance": "2.343522053640079",
        "perihelion_time": "2458780.249603652360",
        "mean_anomaly": "114.6045458981767",
        "mean_motion": ".5203375240119272",
        "equinox": "J2000",
        "orbit_class": {
            "orbit_class_type": "APO",
            "orbit_class_description": "Near-Earth asteroid orbits which cross the Earth’s orbit similar to that of 1862 Apollo",
            "orbit_class_range": "a (semi-major axis) > 1.0 AU; q (perihelion) < 1.017 AU"
        }
    },
    "is_sentry_object": false
}